[{"OBJECT_NAME":"STARLINK-4701","OBJECT_ID":"2022-107AD","EPOCH":"2026-03-09T21:18:52.676352","MEAN_MOTION":15.08836917,"ECCENTRICITY":0.0001331,"INCLINATION":53.2166,"RA_OF_ASC_NODE":253.2259,"ARG_OF_PERICENTER":95.4536,"MEAN_ANOMALY":264.6608,"EPHEMERIS_TYPE":0,"CLASSIFICATION_TYPE":"U","NORAD_CAT_ID":53727,"ELEMENT_SET_NO":999,"REV_AT_EPOCH":19458,"BSTAR":-1.0475413e-5,"MEAN_MOTION_DOT":-4.55e-6,"MEAN_MOTION_DDOT":0},{"OBJECT_NAME":"LEMUR-2-THERMORAPTOR","OBJECT_ID":"2025-061D","EPOCH":"2026-03-09T21:59:50.013312","MEAN_MOTION":15.13256334,"ECCENTRICITY":0.00176188,"INCLINATION":97.562,"RA_OF_ASC_NODE":45.6468,"ARG_OF_PERICENTER":235.5571,"MEAN_ANOMALY":124.3996,"EPHEMERIS_TYPE":0,"CLASSIFICATION_TYPE":"U","NORAD_CAT_ID":63354,"ELEMENT_SET_NO":999,"REV_AT_EPOCH":5259,"BSTAR":0.00030402789,"MEAN_MOTION_DOT":5.359e-5,"MEAN_MOTION_DDOT":0}]
